{"type": "FeatureCollection", "features": [ {"type": "Feature", "properties": {"norad_id": 30252, "name": "FENGYUN 1C DEB", "group": "fengyun-1c-debris", "lat": 64.84278821457913, "lon": -150.91223565178348, "alt_km": 865.2207391467382, "timestamp": "2025-12-21T03:56:51.111248+00:00", "meta": {"OBJECT_NAME": "FENGYUN 1C DEB", "OBJECT_ID": "1999-025XM", "EPOCH": "2025-12-20T19:44:24.944352", "MEAN_MOTION": 14.09722511, "ECCENTRICITY": 0.0066217, "INCLINATION": 98.7429, "RA_OF_ASC_NODE": 9.629, "ARG_OF_PERICENTER": 218.5594, "MEAN_ANOMALY": 321.2874, "EPHEMERIS_TYPE": 0, "CLASSIFICATION_TYPE": "U", "NORAD_CAT_ID": 30252, "ELEMENT_SET_NO": 999, "REV_AT_EPOCH": 97079, "BSTAR": 0.00029551, "MEAN_MOTION_DOT": 4.86e-06, "MEAN_MOTION_DDOT": 0}, "tle": {"line1": "1 30252U 99025XM  25354.82251093  .00000486  00000+0  29551-3 0  9998", "line2": "2 30252  98.7429   9.6290 0066217 218.5594 321.2874 14.09722511970796"}}, "geometry": {"type": "Point", "coordinates": [-150.91223565178348, 64.84278821457913]}}, {"type": "Feature", "properties": {"norad_id": 30253, "name": "FENGYUN 1C DEB", "group": "fengyun-1c-debris", "lat": -58.482647946848836, "lon": -112.0341225874348, "alt_km": 1116.635398817415, "timestamp": "2025-12-21T03:56:51.111257+00:00", "meta": {"OBJECT_NAME": "FENGYUN 1C DEB", "OBJECT_ID": "1999-025XN", "EPOCH": "2025-12-20T04:19:57.619200", "MEAN_MOTION": 13.73209261, "ECCENTRICITY": 0.02210086, "INCLINATION": 98.7518, "RA_OF_ASC_NODE": 81.6138, "ARG_OF_PERICENTER": 21.2641, "MEAN_ANOMALY": 38.3481, "EPHEMERIS_TYPE": 0, "CLASSIFICATION_TYPE": "U", "NORAD_CAT_ID": 30253, "ELEMENT_SET_NO": 999, "REV_AT_EPOCH": 94116, "BSTAR": 0.0014942702, "MEAN_MOTION_DOT": 1.611e-05, "MEAN_MOTION_DDOT": 0}, "tle": {"line1": "1 30253U 99025XN  25354.18052800  .00001611  00000+0  14943-2 0  9992", "line2": "2 30253  98.7518  81.6138 0221008  21.2641  38.3481 13.73209261941161"}}, "geometry": {"type": "Point", "coordinates": [-112.0341225874348, -58.482647946848836]}}, {"type": "Feature", "properties": {"norad_id": 30257, "name": "FENGYUN 1C DEB", "group": "fengyun-1c-debris", "lat": 63.821632767717965, "lon": -168.25021065723283, "alt_km": 820.3045819603849, "timestamp": "2025-12-21T03:56:51.111267+00:00", "meta": {"OBJECT_NAME": "FENGYUN 1C DEB", "OBJECT_ID": "1999-025XS", "EPOCH": "2025-12-20T18:01:38.395776", "MEAN_MOTION": 14.09727783, "ECCENTRICITY": 0.0059719, "INCLINATION": 98.7495, "RA_OF_ASC_NODE": 353.0914, "ARG_OF_PERICENTER": 76.967, "MEAN_ANOMALY": 100.781, "EPHEMERIS_TYPE": 0, "CLASSIFICATION_TYPE": "U", "NORAD_CAT_ID": 30257, "ELEMENT_SET_NO": 999, "REV_AT_EPOCH": 97330, "BSTAR": 0.00015843, "MEAN_MOTION_DOT": 2.4e-06, "MEAN_MOTION_DDOT": 0}, "tle": {"line1": "1 30257U 99025XS  25354.75113884  .00000240  00000+0  15843-3 0  9997", "line2": "2 30257  98.7495 353.0914 0059719  76.9670 100.7810 14.09727783973309"}}, "geometry": {"type": "Point", "coordinates": [-168.25021065723283, 63.821632767717965]}}, {"type": "Feature", "properties": {"norad_id": 30259, "name": "FENGYUN 1C DEB", "group": "fengyun-1c-debris", "lat": -10.8415241636382, "lon": -151.05854104713924, "alt_km": 769.7492040988718, "timestamp": "2025-12-21T03:56:51.111276+00:00", "meta": {"OBJECT_NAME": "FENGYUN 1C DEB", "OBJECT_ID": "1999-025XU", "EPOCH": "2025-12-20T03:44:56.913792", "MEAN_MOTION": 14.51539838, "ECCENTRICITY": 0.02419831, "INCLINATION": 98.7611, "RA_OF_ASC_NODE": 206.1974, "ARG_OF_PERICENTER": 245.7241, "MEAN_ANOMALY": 235.0619, "EPHEMERIS_TYPE": 0, "CLASSIFICATION_TYPE": "U", "NORAD_CAT_ID": 30259, "ELEMENT_SET_NO": 999, "REV_AT_EPOCH": 99582, "BSTAR": 0.00030899601, "MEAN_MOTION_DOT": 1.745e-05, "MEAN_MOTION_DDOT": 0}, "tle": {"line1": "1 30259U 99025XU  25354.15621428  .00001745  00000+0  30900-3 0  9993", "line2": "2 30259  98.7611 206.1974 0241983 245.7241 235.0619 14.51539838995820"}}, "geometry": {"type": "Point", "coordinates": [-151.05854104713924, -10.8415241636382]}}, {"type": "Feature", "properties": {"norad_id": 30263, "name": "FENGYUN 1C DEB", "group": "fengyun-1c-debris", "lat": 36.60350733972213, "lon": 103.4613981313919, "alt_km": 832.7739669140883, "timestamp": "2025-12-21T03:56:51.111285+00:00", "meta": {"OBJECT_NAME": "FENGYUN 1C DEB", "OBJECT_ID": "1999-025XY", "EPOCH": "2025-12-20T07:28:46.628256", "MEAN_MOTION": 14.01494898, "ECCENTRICITY": 0.01444826, "INCLINATION": 98.9351, "RA_OF_ASC_NODE": 109.3367, "ARG_OF_PERICENTER": 339.2977, "MEAN_ANOMALY": 76.0019, "EPHEMERIS_TYPE": 0, "CLASSIFICATION_TYPE": "U", "NORAD_CAT_ID": 30263, "ELEMENT_SET_NO": 999, "REV_AT_EPOCH": 96131, "BSTAR": 0.00070985244, "MEAN_MOTION_DOT": 1.131e-05, "MEAN_MOTION_DDOT": 0}, "tle": {"line1": "1 30263U 99025XY  25354.31165079  .00001131  00000+0  70985-3 0  9997", "line2": "2 30263  98.9351 109.3367 0144482 339.2977  76.0019 14.01494898961314"}}, "geometry": {"type": "Point", "coordinates": [103.4613981313919, 36.60350733972213]}}, {"type": "Feature", "properties": {"norad_id": 30264, "name": "FENGYUN 1C DEB", "group": "fengyun-1c-debris", "lat": 51.163420590176926, "lon": 38.921021896709775, "alt_km": 928.9015081212501, "timestamp": "2025-12-21T03:56:51.111294+00:00", "meta": {"OBJECT_NAME": "FENGYUN 1C DEB", "OBJECT_ID": "1999-025XZ", "EPOCH": "2025-12-20T10:43:02.949024", "MEAN_MOTION": 14.07667334, "ECCENTRICITY": 0.01077992, "INCLINATION": 98.9698, "RA_OF_ASC_NODE": 49.5221, "ARG_OF_PERICENTER": 265.7001, "MEAN_ANOMALY": 109.6508, "EPHEMERIS_TYPE": 0, "CLASSIFICATION_TYPE": "U", "NORAD_CAT_ID": 30264, "ELEMENT_SET_NO": 999, "REV_AT_EPOCH": 96666, "BSTAR": 0.00098942469, "MEAN_MOTION_DOT": 1.718e-05, "MEAN_MOTION_DDOT": 0}, "tle": {"line1": "1 30264U 99025XZ  25354.44656191  .00001718  00000+0  98942-3 0  9996", "line2": "2 30264  98.9698  49.5221 0107799 265.7001 109.6508 14.07667334966666"}}, "geometry": {"type": "Point", "coordinates": [38.921021896709775, 51.163420590176926]}}, {"type": "Feature", "properties": {"norad_id": 30265, "name": "FENGYUN 1C DEB", "group": "fengyun-1c-debris", "lat": 2.299448100371742, "lon": -75.00059980591037, "alt_km": 719.3150840445196, "timestamp": "2025-12-21T03:56:51.111303+00:00", "meta": {"OBJECT_NAME": "FENGYUN 1C DEB", "OBJECT_ID": "1999-025YA", "EPOCH": "2025-12-20T06:01:15.460032", "MEAN_MOTION": 14.58755329, "ECCENTRICITY": 0.0028086, "INCLINATION": 98.6646, "RA_OF_ASC_NODE": 103.6962, "ARG_OF_PERICENTER": 349.168, "MEAN_ANOMALY": 73.4107, "EPHEMERIS_TYPE": 0, "CLASSIFICATION_TYPE": "U", "NORAD_CAT_ID": 30265, "ELEMENT_SET_NO": 999, "REV_AT_EPOCH": 98511, "BSTAR": 0.0014016, "MEAN_MOTION_DOT": 6.535e-05, "MEAN_MOTION_DDOT": 0}, "tle": {"line1": "1 30265U 99025YA  25354.25087338  .00006535  00000+0  14016-2 0  9998", "line2": "2 30265  98.6646 103.6962 0028086 349.1680  73.4107 14.58755329985114"}}, "geometry": {"type": "Point", "coordinates": [-75.00059980591037, 2.299448100371742]}}, {"type": "Feature", "properties": {"norad_id": 30266, "name": "FENGYUN 1C DEB", "group": "fengyun-1c-debris", "lat": -49.459341800547634, "lon": 70.21953872884252, "alt_km": 850.6002535536627, "timestamp": "2025-12-21T03:56:51.111312+00:00", "meta": {"OBJECT_NAME": "FENGYUN 1C DEB", "OBJECT_ID": "1999-025YB", "EPOCH": "2025-12-20T02:52:06.007008", "MEAN_MOTION": 14.15114543, "ECCENTRICITY": 0.00820962, "INCLINATION": 99.0423, "RA_OF_ASC_NODE": 58.4307, "ARG_OF_PERICENTER": 44.9975, "MEAN_ANOMALY": 345.1719, "EPHEMERIS_TYPE": 0, "CLASSIFICATION_TYPE": "U", "NORAD_CAT_ID": 30266, "ELEMENT_SET_NO": 999, "REV_AT_EPOCH": 96894, "BSTAR": 0.00090809827, "MEAN_MOTION_DOT": 1.774e-05, "MEAN_MOTION_DDOT": 0}, "tle": {"line1": "1 30266U 99025YB  25354.11951397  .00001774  00000+0  90810-3 0  9996", "line2": "2 30266  99.0423  58.4307 0082096  44.9975 345.1719 14.15114543968941"}}, "geometry": {"type": "Point", "coordinates": [70.21953872884252, -49.459341800547634]}}, {"type": "Feature", "properties": {"norad_id": 30267, "name": "FENGYUN 1C DEB", "group": "fengyun-1c-debris", "lat": 56.489462048127535, "lon": -100.01269371383458, "alt_km": 812.3266192718402, "timestamp": "2025-12-21T03:56:51.111321+00:00", "meta": {"OBJECT_NAME": "FENGYUN 1C DEB", "OBJECT_ID": "1999-025YC", "EPOCH": "2025-12-20T03:45:17.156448", "MEAN_MOTION": 14.23652517, "ECCENTRICITY": 0.00596523, "INCLINATION": 98.85, "RA_OF_ASC_NODE": 65.3643, "ARG_OF_PERICENTER": 222.017, "MEAN_ANOMALY": 137.6425, "EPHEMERIS_TYPE": 0, "CLASSIFICATION_TYPE": "U", "NORAD_CAT_ID": 30267, "ELEMENT_SET_NO": 999, "REV_AT_EPOCH": 97400, "BSTAR": 0.0010711342, "MEAN_MOTION_DOT": 2.443e-05, "MEAN_MOTION_DDOT": 0}, "tle": {"line1": "1 30267U 99025YC  25354.15644857  .00002443  00000+0  10711-2 0  9996", "line2": "2 30267  98.8500  65.3643 0059652 222.0170 137.6425 14.23652517974002"}}, "geometry": {"type": "Point", "coordinates": [-100.01269371383458, 56.489462048127535]}}, {"type": "Feature", "properties": {"norad_id": 30270, "name": "FENGYUN 1C DEB", "group": "fengyun-1c-debris", "lat": 78.45928981742956, "lon": -122.78074540917603, "alt_km": 843.3309055695854, "timestamp": "2025-12-21T03:56:51.111331+00:00", "meta": {"OBJECT_NAME": "FENGYUN 1C DEB", "OBJECT_ID": "1999-025YF", "EPOCH": "2025-12-20T19:49:06.741408", "MEAN_MOTION": 14.11274533, "ECCENTRICITY": 0.0007758, "INCLINATION": 98.7017, "RA_OF_ASC_NODE": 8.2988, "ARG_OF_PERICENTER": 137.9804, "MEAN_ANOMALY": 39.7921, "EPHEMERIS_TYPE": 0, "CLASSIFICATION_TYPE": "U", "NORAD_CAT_ID": 30270, "ELEMENT_SET_NO": 999, "REV_AT_EPOCH": 97475, "BSTAR": 6.7835e-05, "MEAN_MOTION_DOT": 8e-07, "MEAN_MOTION_DDOT": 0}, "tle": {"line1": "1 30270U 99025YF  25354.82577247  .00000080  00000+0  67835-4 0  9998", "line2": "2 30270  98.7017   8.2988 0007758 137.9804  39.7921 14.11274533974754"}}, "geometry": {"type": "Point", "coordinates": [-122.78074540917603, 78.45928981742956]}}]}